ONEWEB-0116             
1 48046U 21025E   24238.28715895  .00000284  00000+0  74213-3 0  9999
2 48046  87.8871  91.7293 0001558  78.4983 281.6321 13.13470264166896
ONEWEB-0150             
1 48047U 21025F   24238.33794325  .00000077  00000+0  17637-3 0  9998
2 48047  87.8864  91.7340 0001834  82.6764 277.4574 13.13470592166799
ONEWEB-0107             
1 48048U 21025G   24238.33952748  .00000094  00000+0  22365-3 0  9997
2 48048  87.8864  91.7315 0002004  84.6156 275.5202 13.13471473166773
ONEWEB-0101             
1 48049U 21025H   24238.60773808 -.00000054  00000+0 -18359-3 0  9992
2 48049  87.8872  91.6985 0001688  86.0493 274.0829 13.13469552166787
ONEWEB-0113             
1 48050U 21025J   24238.35698418  .00000341  00000+0  89905-3 0  9991
2 48050  87.8870  91.7298 0001584  80.0733 280.0575 13.13470738166830
ONEWEB-0112             
1 48051U 21025K   24238.34428228  .00000053  00000+0  11148-3 0  9995
2 48051  87.8863  91.7281 0001747  80.1641 279.9685 13.13470280166847
ONEWEB-0156             
1 48052U 21025L   24238.35381004  .00000367  00000+0  96993-3 0  9996
2 48052  87.8867  91.7262 0001737  81.4437 278.6889 13.13469992166825
ONEWEB-0161             
1 48053U 21025M   24238.86006767 -.00000237  00000+0 -68375-3 0  9994
2 48053  87.8870  91.6339 0001799  87.6624 272.4711 13.13471962166835
